[{"OBJECT_NAME":"OBJECT C","OBJECT_ID":"2024-125C","EPOCH":"2026-03-09T14:14:20.761440","MEAN_MOTION":15.83873438,"ECCENTRICITY":0.0005226,"INCLINATION":97.2296,"RA_OF_ASC_NODE":291.0595,"ARG_OF_PERICENTER":185.1229,"MEAN_ANOMALY":174.9989,"EPHEMERIS_TYPE":0,"CLASSIFICATION_TYPE":"U","NORAD_CAT_ID":60205,"ELEMENT_SET_NO":999,"REV_AT_EPOCH":9451,"BSTAR":0.0010633,"MEAN_MOTION_DOT":0.0024123,"MEAN_MOTION_DDOT":0},{"OBJECT_NAME":"STARLINK-36614","OBJECT_ID":"2026-020F","EPOCH":"2026-03-09T05:33:27.475200","MEAN_MOTION":15.76652645,"ECCENTRICITY":0.00011556,"INCLINATION":42.9984,"RA_OF_ASC_NODE":144.9771,"ARG_OF_PERICENTER":293.7514,"MEAN_ANOMALY":66.3235,"EPHEMERIS_TYPE":0,"CLASSIFICATION_TYPE":"U","NORAD_CAT_ID":67622,"ELEMENT_SET_NO":999,"REV_AT_EPOCH":601,"BSTAR":0.0025708359,"MEAN_MOTION_DOT":0.00446611,"MEAN_MOTION_DDOT":0}]
