2024-125C               
1 60205U 24125C   26068.59329585  .00241230  00000+0  10633-2 0  9991
2 60205  97.2296 291.0595 0005226 185.1229 174.9989 15.83873438 94510
STARLINK-36614          
1 67622U 26020F   26068.23156800  .00446611  00000+0  25708-2 0  9995
2 67622  42.9984 144.9771 0001155 293.7514  66.3235 15.76652645  6016
